OBJECT_NAME,OBJECT_ID,EPOCH,MEAN_MOTION,ECCENTRICITY,INCLINATION,RA_OF_ASC_NODE,ARG_OF_PERICENTER,MEAN_ANOMALY,EPHEMERIS_TYPE,CLASSIFICATION_TYPE,NORAD_CAT_ID,ELEMENT_SET_NO,REV_AT_EPOCH,BSTAR,MEAN_MOTION_DOT,MEAN_MOTION_DDOT
IRIDIUM 33,1997-051C,2024-04-22T02:47:54.790368,14.34319099,0.0008656,86.3849,319.6844,26.8663,333.2979,0,U,24946,999,39238,0.00029818,8.57e-06,0
IRIDIUM 33 DEB,1997-051L,2024-04-21T22:40:25.916160,14.4065941,0.0010569,86.3987,314.1598,346.5416,13.55,0,U,33773,999,79703,0.0010259,3.294e-05,0
IRIDIUM 33 DEB,1997-051N,2024-04-21T13:07:08.510592,14.3812294,0.0014519,86.3615,305.0099,351.53,62.0092,0,U,33775,999,79503,0.001893,5.764e-05,0
IRIDIUM 33 DEB,1997-051P,2024-04-21T22:07:21.188928,14.36078865,0.0015105,86.4054,332.1683,13.0201,116.5305,0,U,33776,999,79466,0.00099497,2.917e-05,0
IRIDIUM 33 DEB,1997-051Q,2024-04-21T22:20:10.726944,14.47690324,0.0012113,86.3766,294.3691,117.9162,242.3269,0,U,33777,999,79830,0.0027538,0.00010192,0
IRIDIUM 33 DEB,1997-051T,2024-04-21T23:14:01.559040,14.38695603,0.0011566,86.3375,287.3029,357.0234,118.0571,0,U,33850,999,79517,0.0018688,5.754e-05,0
IRIDIUM 33 DEB,1997-051W,2024-04-21T22:17:11.244768,13.94419837,0.0221433,85.9991,251.7368,270.9791,218.641,0,U,33853,999,76982,0.0018709,3.069e-05,0
IRIDIUM 33 DEB,1997-051AC,2024-04-21T21:42:26.346240,14.58460883,0.0040421,86.3318,277.7316,287.7549,71.925,0,U,33859,999,79644,0.0083987,0.00039612,0
IRIDIUM 33 DEB,1997-051AD,2024-04-21T23:29:38.539392,14.5338479,0.0011827,86.3841,289.6586,200.5681,284.9924,0,U,33860,999,79978,0.0036652,0.00015298,0
IRIDIUM 33 DEB,1997-051AF,2024-04-22T00:48:17.949312,14.55791496,0.0058572,86.4082,298.9645,317.928,162.1273,0,U,33862,999,80058,0.0030016,0.00013486,0
IRIDIUM 33 DEB,1997-051AH,2024-04-21T18:41:56.439744,14.70705701,0.0010053,86.2747,200.2255,89.2534,35.0766,0,U,33864,999,80163,0.0048914,0.00029944,0
IRIDIUM 33 DEB,1997-051AK,2024-04-21T15:44:53.695392,14.19727381,0.0111093,86.3054,345.7364,280.6626,132.3063,0,U,33866,999,78278,0.0039874,8.992e-05,0
IRIDIUM 33 DEB,1997-051AL,2024-04-21T10:26:10.901760,14.72571869,0.0018651,86.4136,268.5948,18.4586,341.7303,0,U,33867,999,80521,0.0053863,0.00034498,0
IRIDIUM 33 DEB,1997-051AP,2024-04-22T01:15:49.934592,14.39981938,0.0022331,86.3744,314.0516,13.5698,107.8746,0,U,33870,999,79495,0.0021665,6.859e-05,0
IRIDIUM 33 DEB,1997-051AS,2024-04-21T20:19:17.539392,14.99804783,0.0013997,86.3512,236.4882,286.8896,73.0801,0,U,33873,999,80474,0.018103,0.00231462,0
IRIDIUM 33 DEB,1997-051AT,2024-04-22T00:06:51.492096,14.53158104,0.0041793,86.2775,279.3593,192.2259,288.7808,0,U,33874,999,79159,0.012191,0.000514,0
IRIDIUM 33 DEB,1997-051BA,2024-04-21T16:18:47.392416,14.38911511,0.0068588,86.3909,3.6586,6.881,49.6515,0,U,33881,999,78817,0.0086864,0.00027604,0
IRIDIUM 33 DEB,1997-051BD,2024-04-21T22:13:01.033824,14.5820724,0.0013164,86.3735,276.6283,221.3547,296.3469,0,U,33884,999,80045,0.0062044,0.00028772,0
IRIDIUM 33 DEB,1997-051BF,2024-04-21T21:49:44.244768,14.34657951,0.0015954,86.3814,319.3429,52.7032,70.4902,0,U,33886,999,79447,0.00061428,1.758e-05,0
IRIDIUM 33 DEB,1997-051BG,2024-04-21T21:34:27.880320,14.36071385,0.0008024,86.3016,261.4883,55.4614,68.0799,0,U,33887,999,79552,0.00065725,1.931e-05,0
IRIDIUM 33 DEB,1997-051BH,2024-04-21T20:02:59.430048,14.81837633,0.0029391,86.3046,267.1385,260.5537,99.2363,0,U,33888,999,79651,0.022275,0.00181764,0
IRIDIUM 33 DEB,1997-051BM,2024-04-21T18:32:25.893024,15.04159655,0.0012749,86.3359,229.6706,254.5275,105.4551,0,U,33952,999,80450,0.014191,0.00202547,0
IRIDIUM 33 DEB,1997-051BN,2024-04-22T00:46:57.540288,14.45630388,0.0019448,86.3877,311.9405,304.0795,178.7301,0,U,33953,999,79656,0.0031321,0.00011122,0
IRIDIUM 33 DEB,1997-051BU,2024-04-21T14:08:05.004384,14.62631543,0.0057693,86.3675,319.9136,110.858,249.8823,0,U,33959,999,79215,0.0073924,0.00038678,0
IRIDIUM 33 DEB,1997-051BV,2024-04-22T04:52:36.205248,14.59200061,0.0001342,86.2733,205.6218,60.5906,5.8085,0,U,33960,999,80061,0.0034715,0.0001641,0
IRIDIUM 33 DEB,1997-051CA,2024-04-21T20:50:21.513984,14.76606359,0.0007536,86.354,258.2067,339.4044,20.687,0,U,33965,999,80193,0.011097,0.00078339,0
IRIDIUM 33 DEB,1997-051CB,2024-04-22T01:25:00.425280,14.44730721,0.0009456,86.3894,302.3327,55.6373,64.0356,0,U,33966,999,79793,0.0018061,6.288e-05,0
IRIDIUM 33 DEB,1997-051CE,2024-04-21T22:18:15.757920,14.43976378,0.0005976,86.3421,277.3425,315.3889,44.6831,0,U,34071,999,79660,0.0023875,8.177e-05,0
IRIDIUM 33 DEB,1997-051CL,2024-04-22T01:34:39.927360,14.4964694,0.001067,86.3894,312.319,245.9612,241.4652,0,U,34077,999,79600,0.0040842,0.00015748,0
IRIDIUM 33 DEB,1997-051CN,2024-04-21T11:03:17.064288,14.59937377,0.0008421,86.3796,276.6021,234.9889,178.1349,0,U,34079,999,80144,0.0035553,0.00017087,0
IRIDIUM 33 DEB,1997-051CV,2024-04-21T23:08:39.142752,14.66776635,0.001279,86.3714,300.1995,260.5191,252.6985,0,U,34086,999,395,0.0082093,0.00046098,0
IRIDIUM 33 DEB,1997-051CX,2024-04-21T13:41:35.665152,14.58823745,0.0010637,86.3925,298.6795,154.5376,271.3713,0,U,34088,999,79899,0.0057748,0.00027125,0
IRIDIUM 33 DEB,1997-051DA,2024-04-21T19:14:24.091008,14.4560136,0.0063151,86.3644,332.2689,198.6363,161.2527,0,U,34091,999,79098,0.0045079,0.00016362,0
IRIDIUM 33 DEB,1997-051DG,2024-04-21T20:31:34.642848,14.26375524,0.0091465,86.2,264.3704,143.0629,217.6909,0,U,34097,999,78603,0.0066004,0.0001662,0
IRIDIUM 33 DEB,1997-051DM,2024-04-21T17:50:58.791264,14.53370881,0.0079858,86.3684,8.4301,49.4427,9.423,0,U,34102,999,78667,0.015778,0.00069053,0
IRIDIUM 33 DEB,1997-051DR,2024-04-21T15:46:14.124288,14.72010722,0.0011946,86.3538,250.6225,190.9583,296.1744,0,U,34106,999,80226,0.0094079,0.00059592,0
IRIDIUM 33 DEB,1997-051DS,2024-04-21T22:49:13.542816,14.81475288,0.0011422,86.3674,258.4236,216.7056,264.0124,0,U,34107,999,80311,0.010312,0.00081753,0
IRIDIUM 33 DEB,1997-051DY,2024-04-21T18:26:18.489120,14.34587142,0.0058852,86.2169,238.0063,259.6053,99.8506,0,U,34145,999,79019,0.0040608,0.00011721,0
IRIDIUM 33 DEB,1997-051DZ,2024-04-21T10:22:05.439360,14.41773453,0.0033517,86.2832,253.3599,57.9564,0.7604,0,U,34146,999,79433,0.002317,7.636e-05,0
IRIDIUM 33 DEB,1997-051EN,2024-04-21T23:52:53.828544,14.35497996,0.0031749,86.3472,303.2752,92.4667,268.0165,0,U,34159,999,79344,0.0014395,4.182e-05,0
IRIDIUM 33 DEB,1997-051ES,2024-04-21T10:55:28.020288,14.42282752,0.0020631,86.3253,262.5221,331.839,87.0665,0,U,34350,999,79630,0.0012504,4.153e-05,0
IRIDIUM 33 DEB,1997-051FA,2024-04-21T18:51:06.228000,14.84834603,0.0017351,86.3166,231.4062,347.7942,164.103,0,U,34358,999,80115,0.014513,0.00125697,0
IRIDIUM 33 DEB,1997-051FJ,2024-04-21T14:11:48.615360,14.44036884,0.0022019,86.3697,308.2516,351.1443,68.1826,0,U,34366,999,79488,0.0028791,9.899e-05,0
IRIDIUM 33 DEB,1997-051FT,2024-04-21T21:06:54.389088,14.15687948,0.0103364,86.4298,64.2324,229.9306,184.306,0,U,34375,999,78217,0.0015577,3.232e-05,0
IRIDIUM 33 DEB,1997-051FU,2024-04-22T03:33:04.436064,14.46359523,0.0034108,86.2987,272.4843,37.3922,322.9644,0,U,34376,999,79450,0.0058137,0.00021075,0
IRIDIUM 33 DEB,1997-051GB,2024-04-21T22:18:36.506880,14.64653398,0.0016599,86.401,281.3736,71.0132,80.6345,0,U,34486,999,80117,0.0055695,0.00029785,0
IRIDIUM 33 DEB,1997-051GC,2024-04-21T21:23:04.788096,14.41443611,0.0030164,86.3396,270.1518,315.0112,197.5313,0,U,34487,999,79601,0.00081091,2.662e-05,0
IRIDIUM 33 DEB,1997-051GD,2024-04-21T18:30:12.200256,14.71017821,0.0016946,86.3438,226.2045,355.8548,4.2525,0,U,34488,999,80285,0.0060283,0.00037254,0
IRIDIUM 33 DEB,1997-051GE,2024-04-21T02:22:13.578528,15.044108,0.0027743,86.3803,342.1797,27.1077,333.1599,0,U,34489,999,79269,0.016199,0.00235224,0
IRIDIUM 33 DEB,1997-051GH,2024-04-21T17:58:17.043168,14.02621864,0.025359,86.4915,212.1866,342.1186,172.0543,0,U,34492,999,76576,0.0083106,0.00017049,0
IRIDIUM 33 DEB,1997-051GN,2024-04-22T00:17:15.134208,14.23467493,0.008775,86.2747,307.7122,105.3537,24.437,0,U,34497,999,78471,0.0025001,5.93e-05,0
IRIDIUM 33 DEB,1997-051GU,2024-04-21T22:47:41.067168,14.82028765,0.0018259,86.3107,193.0824,144.0315,216.214,0,U,34503,999,80492,0.011218,0.0009038,0
IRIDIUM 33 DEB,1997-051GZ,2024-04-22T03:12:21.621312,14.3079268,0.0071806,86.3787,355.212,332.7589,26.9845,0,U,34508,999,78710,0.0035098,9.479e-05,0
IRIDIUM 33 DEB,1997-051HC,2024-04-19T23:42:47.145024,14.8162096,0.0017619,86.3721,285.9764,90.7147,36.463,0,U,34511,999,79838,0.029432,0.0023989,0
IRIDIUM 33 DEB,1997-051HN,2024-04-21T12:00:48.659616,14.51337742,0.0007004,86.3791,292.2641,124.6785,235.5082,0,U,34521,999,79746,0.0040653,0.00016238,0
IRIDIUM 33 DEB,1997-051HR,2024-04-21T08:59:06.787104,14.95099009,0.001225,86.3267,249.2544,46.4953,313.7292,0,U,34524,999,79968,0.017568,0.00198041,0
IRIDIUM 33 DEB,1997-051HS,2024-04-21T23:14:00.484224,14.397493,0.0002417,86.3695,302.1372,262.8733,228.9298,0,U,34525,999,79447,0.0013802,4.342e-05,0
IRIDIUM 33 DEB,1997-051HW,2024-04-21T21:23:02.879520,14.39232707,0.0006642,86.3586,290.7431,33.0908,327.0705,0,U,34529,999,79566,0.00094516,2.949e-05,0
IRIDIUM 33 DEB,1997-051JF,2024-04-21T15:37:31.823328,14.36094749,0.0041955,86.2726,267.0338,132.7584,349.9444,0,U,34538,999,79121,0.0040281,0.0001187,0
IRIDIUM 33 DEB,1997-051JH,2024-04-21T06:47:56.712192,14.60271627,0.002421,86.3244,218.4008,84.076,305.1392,0,U,34540,999,80213,0.002732,0.00013273,0
IRIDIUM 33 DEB,1997-051JU,2024-04-21T22:03:07.412256,15.03342507,0.0016889,86.3598,266.8467,341.5324,18.5295,0,U,34643,999,79829,0.019443,0.00274615,0
IRIDIUM 33 DEB,1997-051JZ,2024-04-21T22:19:58.956672,13.96519033,0.0215193,86.411,160.7292,6.473,353.9143,0,U,34648,999,76540,0.0058782,9.898e-05,0
IRIDIUM 33 DEB,1997-051KC,2024-04-21T18:49:40.056960,14.12502323,0.0173334,86.2894,33.2554,315.8269,42.918,0,U,34651,999,77382,0.0092855,0.00019827,0
IRIDIUM 33 DEB,1997-051KD,2024-04-21T20:37:56.378784,14.53006913,0.0034696,86.3344,245.0802,163.4971,351.5191,0,U,34652,999,79897,0.0036915,0.00015392,0
